{
"type": "FeatureCollection",
"name": "IPCC-WGI-land-reference-regions-v5",
"crs": { "type": "name", "properties": { "name": "urn:ogc:def:crs:OGC:1.3:CRS84" } },
"features": [
{ "type": "Feature", "properties": { "ACRONYM": "ALA", "CONTINENT": "NORTH-AMERICA", "REF_NAME": "Alaska" }, "geometry": { "type": "MultiPolygon", "coordinates": [ [ [ [ -141.4, 57.1 ], [ -168.0, 52.5 ], [ -168.0, 72.6 ], [ -129.0, 72.6 ], [ -141.4, 57.1 ] ] ] ] } },
{ "type": "Feature", "properties": { "ACRONYM": "ANA", "CONTINENT": "NORTH-AMERICA", "REF_NAME": "Arctic North-America" }, "geometry": { "type": "MultiPolygon", "coordinates": [ [ [ [ -55.2148, 62.4 ], [ -82.0, 85.0 ], [ -125.0, 77.6 ], [ -129.0, 72.6 ], [ -105.0, 62.4 ], [ -55.2148, 62.4 ] ] ] ] } },
{ "type": "Feature", "properties": { "ACRONYM": "ARP", "CONTINENT": "ASIA", "REF_NAME": "Arabian-Peninsula" }, "geometry": { "type": "MultiPolygon", "coordinates": [ [ [ [ 33.0, 30.0 ], [ 47.6, 30.0 ], [ 60.0, 23.5 ], [ 60.0, 19.5 ], [ 53.0, 15.0 ], [ 43.7, 12.0 ], [ 38.9, 20.0 ], [ 33.0, 30.0 ] ] ] ] } },
{ "type": "Feature", "properties": { "ACRONYM": "CAM", "CONTINENT": "CENTRAL-AMERICA", "REF_NAME": "Central America" }, "geometry": { "type": "MultiPolygon", "coordinates": [ [ [ [ -75.0, 12.0 ], [ -83.4, 2.2 ], [ -104.5, 16.0 ], [ -90.0, 25.0 ], [ -75.0, 12.0 ] ] ] ] } },
{ "type": "Feature", "properties": { "ACRONYM": "CAR", "CONTINENT": "CENTRAL-AMERICA", "REF_NAME": "Caribbean" }, "geometry": { "type": "MultiPolygon", "coordinates": [ [ [ [ -75.0, 12.0 ], [ -90.0, 25.0 ], [ -70.0, 25.0 ], [ -55.0, 12.0 ], [ -75.0, 12.0 ] ] ] ] } },
{ "type": "Feature", "properties": { "ACRONYM": "CAU", "CONTINENT": "OCEANIA", "REF_NAME": "Central Australia" }, "geometry": { "type": "MultiPolygon", "coordinates": [ [ [ [ 110.0, -30.0 ], [ 110.0, -20.0 ], [ 145.5, -20.0 ], [ 145.5, -32.9 ], [ 140.0, -30.0 ], [ 110.0, -30.0 ] ] ] ] } },
{ "type": "Feature", "properties": { "ACRONYM": "CEN", "CONTINENT": "NORTH-AMERICA", "REF_NAME": "Central Eastern North-America" }, "geometry": { "type": "MultiPolygon", "coordinates": [ [ [ [ -90.0, 41.2 ], [ -90.0, 50.0 ], [ -50.0, 50.0 ], [ -62.5053, 41.2 ], [ -90.0, 41.2 ] ] ] ] } },
{ "type": "Feature", "properties": { "ACRONYM": "CNA", "CONTINENT": "NORTH-AMERICA", "REF_NAME": "Central North-America" }, "geometry": { "type": "MultiPolygon", "coordinates": [ [ [ [ -90.0, 50.0 ], [ -90.0, 25.0 ], [ -105.0, 33.8 ], [ -105.0, 50.0 ], [ -90.0, 50.0 ] ] ] ] } },
{ "type": "Feature", "properties": { "ACRONYM": "CWN", "CONTINENT": "NORTH-AMERICA", "REF_NAME": "Central Western North-America" }, "geometry": { "type": "MultiPolygon", "coordinates": [ [ [ [ -130.0, 50.0 ], [ -122.5, 33.8 ], [ -105.0, 33.8 ], [ -105.0, 50.0 ], [ -130.0, 50.0 ] ] ] ] } },
{ "type": "Feature", "properties": { "ACRONYM": "EAN", "CONTINENT": "POLAR", "REF_NAME": "Eastern Antarctica" }, "geometry": { "type": "MultiPolygon", "coordinates": [ [ [ [ -180.0, -90.0 ], [ -180.0, -83.0 ], [ -56.0, -83.0 ], [ -56.0, -75.0 ], [ -25.0, -75.0 ], [ 5.0, -64.0 ], [ 180.0, -64.0 ], [ 180.0, -90.0 ], [ -180.0, -90.0 ] ] ] ] } },
{ "type": "Feature", "properties": { "ACRONYM": "EAS", "CONTINENT": "ASIA", "REF_NAME": "Eastern Asia" }, "geometry": { "type": "MultiPolygon", "coordinates": [ [ [ [ 100.0, 19.5 ], [ 100.0, 37.0 ], [ 108.0, 37.0 ], [ 117.0, 45.0 ], [ 152.0, 45.0 ], [ 132.0, 25.0 ], [ 132.0, 19.5 ], [ 100.0, 19.5 ] ] ] ] } },
{ "type": "Feature", "properties": { "ACRONYM": "EAU", "CONTINENT": "OCEANIA", "REF_NAME": "Eastern Australia" }, "geometry": { "type": "MultiPolygon", "coordinates": [ [ [ [ 145.5, -32.9 ], [ 145.5, -20.0 ], [ 155.0, -20.0 ], [ 155.0, -38.0 ], [ 145.5, -32.9 ] ] ] ] } },
{ "type": "Feature", "properties": { "ACRONYM": "ECA", "CONTINENT": "ASIA", "REF_NAME": "Eastern Central Asia" }, "geometry": { "type": "MultiPolygon", "coordinates": [ [ [ [ 75.0, 37.0 ], [ 75.0, 45.0 ], [ 117.0, 45.0 ], [ 108.0, 37.0 ], [ 75.0, 37.0 ] ] ] ] } },
{ "type": "Feature", "properties": { "ACRONYM": "EEU", "CONTINENT": "EUROPE", "REF_NAME": "Eastern Europe" }, "geometry": { "type": "MultiPolygon", "coordinates": [ [ [ [ 40.0, 45.0 ], [ 40.0, 65.0 ], [ 60.0, 65.0 ], [ 60.0, 45.0 ], [ 40.0, 45.0 ] ] ] ] } },
{ "type": "Feature", "properties": { "ACRONYM": "ESAF", "CONTINENT": "AFRICA", "REF_NAME": "Eastern Southern Africa" }, "geometry": { "type": "MultiPolygon", "coordinates": [ [ [ [ 25.0, -10.0 ], [ 25.0, -36.0 ], [ 31.0, -36.0 ], [ 36.2, -27.0 ], [ 46.5, -10.0 ], [ 25.0, -10.0 ] ] ] ] } },
{ "type": "Feature", "properties": { "ACRONYM": "ESAU", "CONTINENT": "OCEANIA", "REF_NAME": "Eastern Southern Australia" }, "geometry": { "type": "MultiPolygon", "coordinates": [ [ [ [ 140.0, -30.0 ], [ 145.5, -32.9 ], [ 155.0, -38.0 ], [ 155.0, -50.0 ], [ 131.9, -42.8 ], [ 140.0, -30.0 ] ] ] ] } },
{ "type": "Feature", "properties": { "ACRONYM": "ESB", "CONTINENT": "ASIA", "REF_NAME": "Eastern Siberia" }, "geometry": { "type": "MultiPolygon", "coordinates": [ [ [ [ 90.0, 45.0 ], [ 90.0, 65.0 ], [ 130.0, 65.0 ], [ 130.0, 45.0 ], [ 90.0, 45.0 ] ] ] ] } },
{ "type": "Feature", "properties": { "ACRONYM": "ESN", "CONTINENT": "NORTH-AMERICA", "REF_NAME": "Eastern Southern North-America" }, "geometry": { "type": "MultiPolygon", "coordinates": [ [ [ [ -90.0, 25.0 ], [ -104.5, 16.0 ], [ -105.0, 33.8 ], [ -90.0, 25.0 ] ] ] ] } },
{ "type": "Feature", "properties": { "ACRONYM": "GIC", "CONTINENT": "POLAR", "REF_NAME": "Greenland\/Iceland" }, "geometry": { "type": "MultiPolygon", "coordinates": [ [ [ [ -10.0, 62.0 ], [ -38.0, 62.0 ], [ -42.0, 58.0 ], [ -50.0, 58.0 ], [ -82.0, 85.0 ], [ -10.0, 85.0 ], [ -10.0, 62.0 ] ] ] ] } },
{ "type": "Feature", "properties": { "ACRONYM": "MDG", "CONTINENT": "AFRICA", "REF_NAME": "Madagascar" }, "geometry": { "type": "MultiPolygon", "coordinates": [ [ [ [ 36.2, -27.0 ], [ 46.5, -10.0 ], [ 53.0, -10.0 ], [ 53.0, -27.0 ], [ 36.2, -27.0 ] ] ] ] } },
{ "type": "Feature", "properties": { "ACRONYM": "NAU", "CONTINENT": "OCEANIA", "REF_NAME": "Northern Australia" }, "geometry": { "type": "MultiPolygon", "coordinates": [ [ [ [ 110.0, -20.0 ], [ 110.0, -10.0 ], [ 155.0, -10.0 ], [ 155.0, -20.0 ], [ 110.0, -20.0 ] ] ] ] } },
{ "type": "Feature", "properties": { "ACRONYM": "NCAF", "CONTINENT": "AFRICA", "REF_NAME": "North Central Africa" }, "geometry": { "type": "MultiPolygon", "coordinates": [ [ [ [ 8.0, 0.0 ], [ 15.0, 14.7 ], [ 27.0, 14.7 ], [ 27.0, 0.0 ], [ 8.0, 0.0 ] ] ] ] } },
{ "type": "Feature", "properties": { "ACRONYM": "NCSH", "CONTINENT": "AFRICA", "REF_NAME": "North Central Sahara" }, "geometry": { "type": "MultiPolygon", "coordinates": [ [ [ [ -10.0, 20.0 ], [ -10.0, 30.0 ], [ 19.0, 30.0 ], [ 19.0, 20.0 ], [ -10.0, 20.0 ] ] ] ] } },
{ "type": "Feature", "properties": { "ACRONYM": "NEAF", "CONTINENT": "AFRICA", "REF_NAME": "Northeastern Africa" }, "geometry": { "type": "MultiPolygon", "coordinates": [ [ [ [ 27.0, 2.3 ], [ 27.0, 14.7 ], [ 42.1, 14.7 ], [ 43.7, 12.0 ], [ 53.0, 15.0 ], [ 53.0, 7.0 ], [ 46.5, 2.3 ], [ 27.0, 2.3 ] ] ] ] } },
{ "type": "Feature", "properties": { "ACRONYM": "NEN", "CONTINENT": "NORTH-AMERICA", "REF_NAME": "Northeastern North-America" }, "geometry": { "type": "MultiPolygon", "coordinates": [ [ [ [ -50.0, 50.0 ], [ -50.0, 58.0 ], [ -55.2148, 62.4 ], [ -105.0, 62.4 ], [ -105.0, 50.0 ], [ -50.0, 50.0 ] ] ] ] } },
{ "type": "Feature", "properties": { "ACRONYM": "NES", "CONTINENT": "SOUTH-AMERICA", "REF_NAME": "Northeastern South-America" }, "geometry": { "type": "MultiPolygon", "coordinates": [ [ [ [ -34.0, -20.0 ], [ -50.0, -20.0 ], [ -50.0, 0.0 ], [ -34.0, 0.0 ], [ -34.0, -20.0 ] ] ] ] } },
{ "type": "Feature", "properties": { "ACRONYM": "NESEA", "CONTINENT": "ASIA", "REF_NAME": "Northeastern Southeast-Asia" }, "geometry": { "type": "MultiPolygon", "coordinates": [ [ [ [ 112.5, 5.0 ], [ 112.5, 19.5 ], [ 132.0, 19.5 ], [ 132.0, 5.0 ], [ 112.5, 5.0 ] ] ] ] } },
{ "type": "Feature", "properties": { "ACRONYM": "NESH", "CONTINENT": "AFRICA", "REF_NAME": "Northeastern Sahara" }, "geometry": { "type": "MultiPolygon", "coordinates": [ [ [ [ 19.0, 20.0 ], [ 19.0, 30.0 ], [ 33.0, 30.0 ], [ 38.9, 20.0 ], [ 19.0, 20.0 ] ] ] ] } },
{ "type": "Feature", "properties": { "ACRONYM": "NEU", "CONTINENT": "EUROPE", "REF_NAME": "Northern Europe" }, "geometry": { "type": "MultiPolygon", "coordinates": [ [ [ [ -10.0, 48.0 ], [ -10.0, 72.6 ], [ 40.0, 72.6 ], [ 40.0, 61.3 ], [ -10.0, 48.0 ] ] ] ] } },
{ "type": "Feature", "properties": { "ACRONYM": "NMED", "CONTINENT": "EUROPE", "REF_NAME": "Northern Mediterranean" }, "geometry": { "type": "MultiPolygon", "coordinates": [ [ [ [ -10.0, 35.45 ], [ -10.0, 45.0 ], [ 40.0, 45.0 ], [ 40.0, 35.0 ], [ 22.9, 33.0 ], [ 10.8, 37.75 ], [ -10.0, 35.45 ] ] ] ] } },
{ "type": "Feature", "properties": { "ACRONYM": "NSA", "CONTINENT": "SOUTH-AMERICA", "REF_NAME": "Northern South-America" }, "geometry": { "type": "MultiPolygon", "coordinates": [ [ [ [ -72.0, 12.0 ], [ -72.0, -8.0 ], [ -50.0, -8.0 ], [ -50.0, 7.6 ], [ -55.0, 12.0 ], [ -72.0, 12.0 ] ] ] ] } },
{ "type": "Feature", "properties": { "ACRONYM": "NWN", "CONTINENT": "NORTH-AMERICA", "REF_NAME": "Northwestern North-America" }, "geometry": { "type": "MultiPolygon", "coordinates": [ [ [ [ -105.0, 62.4 ], [ -105.0, 50.0 ], [ -130.0, 50.0 ], [ -141.4, 57.1 ], [ -129.0, 72.6 ], [ -105.0, 62.4 ] ] ] ] } },
{ "type": "Feature", "properties": { "ACRONYM": "NWS", "CONTINENT": "SOUTH-AMERICA", "REF_NAME": "Northwestern South-America" }, "geometry": { "type": "MultiPolygon", "coordinates": [ [ [ [ -75.0, 12.0 ], [ -83.4, 2.2 ], [ -83.4, -10.0 ], [ -79.0, -15.0 ], [ -72.0, -15.0 ], [ -72.0, 12.0 ], [ -75.0, 12.0 ] ] ] ] } },
{ "type": "Feature", "properties": { "ACRONYM": "NWSEA", "CONTINENT": "ASIA", "REF_NAME": "Northwestern Southeast-Asia" }, "geometry": { "type": "MultiPolygon", "coordinates": [ [ [ [ 93.0, 5.0 ], [ 93.0, 27.7 ], [ 100.0, 30.0 ], [ 100.0, 19.5 ], [ 112.5, 19.5 ], [ 112.5, 5.0 ], [ 93.0, 5.0 ] ] ] ] } },
{ "type": "Feature", "properties": { "ACRONYM": "NWSH", "CONTINENT": "AFRICA", "REF_NAME": "Northwestern Sahara" }, "geometry": { "type": "MultiPolygon", "coordinates": [ [ [ [ -20.0, 20.0 ], [ -20.0, 30.0 ], [ -10.0, 30.0 ], [ -10.0, 20.0 ], [ -20.0, 20.0 ] ] ] ] } },
{ "type": "Feature", "properties": { "ACRONYM": "NZE", "CONTINENT": "OCEANIA", "REF_NAME": "New-Zealand" }, "geometry": { "type": "MultiPolygon", "coordinates": [ [ [ [ 155.0, -50.0 ], [ 155.0, -30.0 ], [ 180.0, -30.0 ], [ 180.0, -50.0 ], [ 155.0, -50.0 ] ] ] ] } },
{ "type": "Feature", "properties": { "ACRONYM": "RAR", "CONTINENT": "ASIA", "REF_NAME": "Russian-Arctic" }, "geometry": { "type": "MultiPolygon", "coordinates": [ [ [ [ 40.0, 65.0 ], [ 40.0, 72.6 ], [ 94.0, 82.0 ], [ 180.0, 73.8 ], [ 180.0, 65.0 ], [ 40.0, 65.0 ] ] ], [ [ [ -180.0, 73.8 ], [ -180.0, 65.0 ], [ -168.0, 65.0 ], [ -168.0, 72.6 ], [ -180.0, 73.8 ] ] ] ] } },
{ "type": "Feature", "properties": { "ACRONYM": "RFE", "CONTINENT": "ASIA", "REF_NAME": "Russian-Far-East" }, "geometry": { "type": "MultiPolygon", "coordinates": [ [ [ [ 130.0, 45.0 ], [ 130.0, 65.0 ], [ 180.0, 65.0 ], [ 180.0, 59.9 ], [ 157.0, 50.0 ], [ 152.0, 45.0 ], [ 130.0, 45.0 ] ] ] ] } },
{ "type": "Feature", "properties": { "ACRONYM": "SAM", "CONTINENT": "SOUTH-AMERICA", "REF_NAME": "South-America Monsoon" }, "geometry": { "type": "MultiPolygon", "coordinates": [ [ [ [ -66.4, -20.0 ], [ -72.0, -15.0 ], [ -72.0, -8.0 ], [ -50.0, -8.0 ], [ -50.0, -20.0 ], [ -66.4, -20.0 ] ] ] ] } },
{ "type": "Feature", "properties": { "ACRONYM": "SAS", "CONTINENT": "ASIA", "REF_NAME": "Southern Asia" }, "geometry": { "type": "MultiPolygon", "coordinates": [ [ [ [ 60.0, 23.5 ], [ 60.0, 30.0 ], [ 75.0, 30.0 ], [ 88.0, 26.0 ], [ 93.0, 27.7 ], [ 93.0, 19.5 ], [ 87.0, 19.5 ], [ 79.0, 7.0 ], [ 76.0, 7.0 ], [ 70.0, 19.5 ], [ 66.5, 23.5 ], [ 60.0, 23.5 ] ] ] ] } },
{ "type": "Feature", "properties": { "ACRONYM": "SCAF", "CONTINENT": "AFRICA", "REF_NAME": "South Central Africa" }, "geometry": { "type": "MultiPolygon", "coordinates": [ [ [ [ 8.0, 0.0 ], [ 8.0, -22.6 ], [ 25.0, -22.6 ], [ 25.0, -10.0 ], [ 27.0, -10.0 ], [ 27.0, 0.0 ], [ 8.0, 0.0 ] ] ] ] } },
{ "type": "Feature", "properties": { "ACRONYM": "SCSH", "CONTINENT": "AFRICA", "REF_NAME": "South Central Sahara" }, "geometry": { "type": "MultiPolygon", "coordinates": [ [ [ [ -10.0, 14.7 ], [ -10.0, 20.0 ], [ 19.0, 20.0 ], [ 19.0, 14.7 ], [ -10.0, 14.7 ] ] ] ] } },
{ "type": "Feature", "properties": { "ACRONYM": "SEAF", "CONTINENT": "AFRICA", "REF_NAME": "Southeastern Africa" }, "geometry": { "type": "MultiPolygon", "coordinates": [ [ [ [ 27.0, -10.0 ], [ 27.0, 2.3 ], [ 46.5, 2.3 ], [ 46.5, -10.0 ], [ 27.0, -10.0 ] ] ] ] } },
{ "type": "Feature", "properties": { "ACRONYM": "SEN", "CONTINENT": "NORTH-AMERICA", "REF_NAME": "Southeastern North-America" }, "geometry": { "type": "MultiPolygon", "coordinates": [ [ [ [ -70.0, 25.0 ], [ -90.0, 25.0 ], [ -90.0, 41.2 ], [ -62.5053, 41.2 ], [ -77.0, 31.0 ], [ -70.0, 25.0 ] ] ] ] } },
{ "type": "Feature", "properties": { "ACRONYM": "SES", "CONTINENT": "SOUTH-AMERICA", "REF_NAME": " Southeastern South-America" }, "geometry": { "type": "MultiPolygon", "coordinates": [ [ [ [ -34.0, -20.0 ], [ -56.0, -40.0 ], [ -70.2, -40.0 ], [ -66.4, -20.0 ], [ -34.0, -20.0 ] ] ] ] } },
{ "type": "Feature", "properties": { "ACRONYM": "SESH", "CONTINENT": "AFRICA", "REF_NAME": "Southeastern Sahara" }, "geometry": { "type": "MultiPolygon", "coordinates": [ [ [ [ 19.0, 14.7 ], [ 19.0, 20.0 ], [ 38.9, 20.0 ], [ 42.1, 14.7 ], [ 19.0, 14.7 ] ] ] ] } },
{ "type": "Feature", "properties": { "ACRONYM": "SMED", "CONTINENT": "AFRICA", "REF_NAME": "Southern Mediterranean" }, "geometry": { "type": "MultiPolygon", "coordinates": [ [ [ [ -10.0, 30.0 ], [ -10.0, 35.45 ], [ 10.8, 37.75 ], [ 22.9, 33.0 ], [ 40.0, 35.0 ], [ 40.0, 30.0 ], [ -10.0, 30.0 ] ] ] ] } },
{ "type": "Feature", "properties": { "ACRONYM": "SSA", "CONTINENT": "SOUTH-AMERICA", "REF_NAME": "Southern South-America" }, "geometry": { "type": "MultiPolygon", "coordinates": [ [ [ [ -79.0, -56.0 ], [ -79.0, -47.0 ], [ -71.5, -47.0 ], [ -70.2, -40.0 ], [ -56.0, -40.0 ], [ -56.0, -56.0 ], [ -79.0, -56.0 ] ] ] ] } },
{ "type": "Feature", "properties": { "ACRONYM": "SSEA", "CONTINENT": "ASIA", "REF_NAME": "Southern Southeast-Asia" }, "geometry": { "type": "MultiPolygon", "coordinates": [ [ [ [ 93.0, -10.0 ], [ 93.0, 5.0 ], [ 132.0, 5.0 ], [ 155.0, -10.0 ], [ 93.0, -10.0 ] ] ] ] } },
{ "type": "Feature", "properties": { "ACRONYM": "SWS", "CONTINENT": "SOUTH-AMERICA", "REF_NAME": "Southwestern South-America" }, "geometry": { "type": "MultiPolygon", "coordinates": [ [ [ [ -72.0, -15.0 ], [ -66.4, -20.0 ], [ -71.5, -47.0 ], [ -79.0, -47.0 ], [ -74.6, -20.0 ], [ -79.0, -15.0 ], [ -72.0, -15.0 ] ] ] ] } },
{ "type": "Feature", "properties": { "ACRONYM": "SWSH", "CONTINENT": "AFRICA", "REF_NAME": "Southwestern Sahara" }, "geometry": { "type": "MultiPolygon", "coordinates": [ [ [ [ -20.0, 14.7 ], [ -20.0, 20.0 ], [ -10.0, 20.0 ], [ -10.0, 14.7 ], [ -20.0, 14.7 ] ] ] ] } },
{ "type": "Feature", "properties": { "ACRONYM": "TIB", "CONTINENT": "ASIA", "REF_NAME": "Tibetan-Plateau" }, "geometry": { "type": "MultiPolygon", "coordinates": [ [ [ [ 75.0, 30.0 ], [ 75.0, 37.0 ], [ 100.0, 37.0 ], [ 100.0, 30.0 ], [ 93.0, 27.7 ], [ 88.0, 26.0 ], [ 75.0, 30.0 ] ] ] ] } },
{ "type": "Feature", "properties": { "ACRONYM": "WAF", "CONTINENT": "AFRICA", "REF_NAME": "Western Africa" }, "geometry": { "type": "MultiPolygon", "coordinates": [ [ [ [ -20.0, 7.6 ], [ -20.0, 14.7 ], [ 15.0, 14.7 ], [ 8.0, 0.0 ], [ -20.0, 7.6 ] ] ] ] } },
{ "type": "Feature", "properties": { "ACRONYM": "WAN", "CONTINENT": "POLAR", "REF_NAME": "Western Antarctica" }, "geometry": { "type": "MultiPolygon", "coordinates": [ [ [ [ -180.0, -83.0 ], [ -180.0, -70.0 ], [ -80.0, -70.0 ], [ -65.0, -62.0 ], [ -56.0, -62.0 ], [ -56.0, -83.0 ], [ -180.0, -83.0 ] ] ] ] } },
{ "type": "Feature", "properties": { "ACRONYM": "WCA", "CONTINENT": "ASIA", "REF_NAME": "Western Central Asia" }, "geometry": { "type": "MultiPolygon", "coordinates": [ [ [ [ 40.0, 30.0 ], [ 40.0, 45.0 ], [ 75.0, 45.0 ], [ 75.0, 30.0 ], [ 60.0, 30.0 ], [ 60.0, 23.5 ], [ 47.6, 30.0 ], [ 40.0, 30.0 ] ] ] ] } },
{ "type": "Feature", "properties": { "ACRONYM": "WCE", "CONTINENT": "EUROPE", "REF_NAME": "West and Central Europe" }, "geometry": { "type": "MultiPolygon", "coordinates": [ [ [ [ -10.0, 45.0 ], [ -10.0, 48.0 ], [ 40.0, 61.3 ], [ 40.0, 45.0 ], [ -10.0, 45.0 ] ] ] ] } },
{ "type": "Feature", "properties": { "ACRONYM": "WSAF", "CONTINENT": "AFRICA", "REF_NAME": "Western Southern Africa" }, "geometry": { "type": "MultiPolygon", "coordinates": [ [ [ [ 8.0, -36.0 ], [ 8.0, -22.6 ], [ 25.0, -22.6 ], [ 25.0, -36.0 ], [ 8.0, -36.0 ] ] ] ] } },
{ "type": "Feature", "properties": { "ACRONYM": "WSAU", "CONTINENT": "OCEANIA", "REF_NAME": "Western Southern Australia" }, "geometry": { "type": "MultiPolygon", "coordinates": [ [ [ [ 110.0, -36.0 ], [ 110.0, -30.0 ], [ 140.0, -30.0 ], [ 131.9, -42.8 ], [ 110.0, -36.0 ] ] ] ] } },
{ "type": "Feature", "properties": { "ACRONYM": "WSB", "CONTINENT": "ASIA", "REF_NAME": "Western Siberia" }, "geometry": { "type": "MultiPolygon", "coordinates": [ [ [ [ 60.0, 45.0 ], [ 60.0, 65.0 ], [ 90.0, 65.0 ], [ 90.0, 45.0 ], [ 60.0, 45.0 ] ] ] ] } },
{ "type": "Feature", "properties": { "ACRONYM": "WSN", "CONTINENT": "NORTH-AMERICA", "REF_NAME": "Western Southern North-America" }, "geometry": { "type": "MultiPolygon", "coordinates": [ [ [ [ -104.5, 16.0 ], [ -122.5, 33.8 ], [ -105.0, 33.8 ], [ -104.5, 16.0 ] ] ] ] } }
]
}
